INTELSAT 902 (IS-902)   
1 26900U 01039A   26155.19862758 -.00000273  00000+0  00000+0 0  9996
2 26900   6.0857  71.9392 0004269 358.5031 203.6038  1.00271704 90566
INTELSAT 904 (IS-904)   
1 27380U 02007A   26155.05981179 -.00000216  00000+0  00000+0 0  9996
2 27380   6.8873  69.3413 0007283 358.6598 174.5572  1.00271044 51639
DIRECTV 5 (TEMPO 1)     
1 27426U 02023A   26154.62667259 -.00000047  00000+0  00000+0 0  9999
2 27426   4.8432  75.4778 0003563   3.0335 289.0745  1.00271884 87981
INTELSAT 905 (IS-905)   
1 27438U 02027A   26155.25284616  .00000104  00000+0  00000+0 0  9991
2 27438   6.7210  69.9550 0004242  11.1085 125.4484  1.00272206 51233
GALAXY 3C (G-3C)        
1 27445U 02030A   26155.34060669 -.00000141  00000+0  00000+0 0  9995
2 27445   3.6974  78.1472 0001980  28.6864 173.7216  1.00271893 46361
INTELSAT 906 (IS-906)   
1 27513U 02041A   26154.95669883  .00000023  00000+0  00000+0 0  9990
2 27513   5.7702  73.0820 0004745 356.2915 231.5963  1.00271308 86894
GALAXY 13 (HORIZONS-1)  
1 27954U 03044A   26155.32503002  .00000144  00000+0  00000+0 0  9999
2 27954   1.3870  84.0130 0002058 341.9394 153.8108  1.00271435 46449
INTELSAT 10-02          
1 28358U 04022A   26155.06569512  .00000001  00000+0  00000+0 0  9996
2 28358   0.0110 351.1008 0000276 123.8111 160.2515  1.00270913 80427
DIRECTV 8               
1 28659U 05019A   26155.24280872  .00000013  00000+0  00000+0 0  9999
2 28659   0.0022   4.3650 0003158  74.6741 142.0217  1.00271287 76941
GALAXY 28 (G-28)        
1 28702U 05022A   26155.13193449 -.00000189  00000+0  00000+0 0  9998
2 28702   3.2649  79.0912 0003233   0.1428 193.7437  1.00269229 51842
GALAXY 16 (G-16)        
1 29236U 06023A   26155.34279934 -.00000115  00000+0  00000+0 0  9999
2 29236   0.0279 203.2944 0003176 240.3993 193.5117  1.00273848 72844
DIRECTV 9S              
1 29494U 06043A   26155.33673670 -.00000102  00000+0  00000+0 0  9997
2 29494   2.3874  81.0551 0005209   3.3871 188.3822  1.00272011 51251
GALAXY 17 (G-17)        
1 31307U 07016B   26155.19176041 -.00000195  00000+0  00000+0 0  9990
2 31307   2.9394  80.0630 0005004  12.4837 144.1277  1.00270763 69674
INTELSAT 11 (IS-11)     
1 32253U 07044B   26155.30837304 -.00000131  00000+0  00000+0 0  9991
2 32253   3.5318  78.8247 0001635  74.0597  33.2654  0.99053530 68326
HORIZONS-2              
1 32388U 07063B   26155.17669625 -.00000242  00000+0  00000+0 0  9998
2 32388   2.5685  80.7829 0004229 351.2890 170.3820  1.00273999 67689
DIRECTV 11              
1 32729U 08013A   26154.97511619 -.00000114  00000+0  00000+0 0  9997
2 32729   0.0170 148.4619 0000515 243.0214 112.8090  1.00271261 45463
GALAXY 18 (G-18)        
1 32951U 08024A   26155.24280872  .00000037  00000+0  00000+0 0  9994
2 32951   0.0149  16.1375 0003306  66.3028 134.6556  1.00271641 45726
INTELSAT 25 (IS-25)     
1 33153U 08034A   26155.27902193 -.00000153  00000+0  00000+0 0  9990
2 33153   2.6750  80.4561 0002318  14.5221  77.5328  0.99005891 65565
GALAXY 19 (G-19)        
1 33376U 08045A   26155.26351059 -.00000127  00000+0  00000+0 0  9998
2 33376   0.0158  33.4824 0003493  57.8876 159.2102  1.00270630 64775
FM-5                    
1 35493U 09034A   26154.62117243 -.00000188  00000+0  00000+0 0  9990
2 35493   0.0118 299.7148 0000329 342.6474 107.1701  1.00269774 46508
INTELSAT 14 (IS-14)     
1 36097U 09064A   26155.19966758 -.00000261  00000+0  00000+0 0  9992
2 36097   0.0112 304.2011 0002969 144.2315 191.1044  1.00271469 60475
INTELSAT 15 (IS-15)     
1 36106U 09067A   26155.08289001 -.00000174  00000+0  00000+0 0  9996
2 36106   0.0121 312.6187 0002511 122.6811 292.2235  1.00273568 41091
DIRECTV 12              
1 36131U 09075A   26155.11695015 -.00000092  00000+0  00000+0 0  9992
2 36131   0.0425 145.4768 0000313 256.6829 149.7952  1.00273346 46426
INTELSAT 16 (IS-16)     
1 36397U 10006A   26155.12224832 -.00000233  00000+0  00000+0 0  9995
2 36397   0.0123  20.6118 0002403  62.8393 136.9469  1.00270686 59523
XM-5                    
1 37185U 10053A   26155.23725381 -.00000011  00000+0  00000+0 0  9994
2 37185   0.0619 274.2858 0002994 276.9139  31.7068  1.00272881 57353
INTELSAT 17 (IS-17)     
1 37238U 10065B   26155.15039457  .00000010  00000+0  00000+0 0  9997
2 37238   0.0091 282.9347 0002387 153.6832 296.1153  1.00271730 53116
INTELSAT 28 (IS-28)     
1 37392U 11016A   26155.20235426 -.00000213  00000+0  00000+0 0  9991
2 37392   1.7724  82.7814 0004092 350.5125 220.5329  1.00270338 53154
INTELSAT 18 (IS-18)     
1 37834U 11056A   26155.28336677  .00000065  00000+0  00000+0 0  9998
2 37834   0.0136 292.1510 0002258 152.6749  89.9204  1.00271542 53684
INTELSAT 22 (IS-22)     
1 38098U 12011A   26155.21780821 -.00000047  00000+0  00000+0 0  9991
2 38098   0.0097  33.5367 0002039  39.6766 329.9543  1.00271931  7055
INTELSAT 19 (IS-19)     
1 38356U 12030A   26155.32336612 -.00000044  00000+0  00000+0 0  9993
2 38356   0.0188 336.0261 0003225 104.6625  94.5018  1.00272177 50325
INTELSAT 20 (IS-20)     
1 38740U 12043A   26155.21780821 -.00000013  00000+0  00000+0 0  9993
2 38740   0.0048  89.4312 0001661  84.3196 225.8244  1.00273082 50610
